{
  "type": "FeatureCollection",
  "features": [
    {
      "type": "Feature",
      "properties": {
        "norad_id": 43823,
        "name": "GEO-KOMPSAT-2A",
        "group": "weather",
        "lat": -0.03733316364173005,
        "lon": -11.522974087318351,
        "alt_km": 35787.33897451074,
        "timestamp": "2025-12-07T09:35:09.435259+00:00",
        "meta_object_name": "GEO-KOMPSAT-2A",
        "meta_object_id": "2018-100A",
        "meta_epoch": "2025-12-06T20:31:38.555040",
        "meta_mean_motion": 1.00271607,
        "meta_eccentricity": 2.994e-05,
        "meta_inclination": 0.0561,
        "meta_ra_of_asc_node": 121.3471,
        "meta_arg_of_pericenter": 73.7438,
        "meta_mean_anomaly": 316.9783,
        "meta_ephemeris_type": 0,
        "meta_classification_type": "U",
        "meta_norad_cat_id": 43823,
        "meta_element_set_no": 999,
        "meta_rev_at_epoch": 2570,
        "meta_bstar": 0,
        "meta_mean_motion_dot": -3.38e-06,
        "meta_mean_motion_ddot": 0,
        "tle_line1": "1 43823U 18100A   25340.85530735 -.00000338  00000+0  00000+0 0  9993",
        "tle_line2": "2 43823   0.0561 121.3471 0000299  73.7438 316.9783  1.00271607 25700"
      },
      "geometry": {
        "type": "Point",
        "coordinates": [
          -11.522974087318351,
          -0.03733316364173005
        ]
      }
    },
    {
      "type": "Feature",
      "properties": {
        "norad_id": 44387,
        "name": "METEOR-M2 2",
        "group": "weather",
        "lat": 7.970288628096758,
        "lon": -40.19356991889062,
        "alt_km": 813.3788867898729,
        "timestamp": "2025-12-07T09:35:09.435270+00:00",
        "meta_object_name": "METEOR-M2 2",
        "meta_object_id": "2019-038A",
        "meta_epoch": "2025-12-06T23:25:55.801056",
        "meta_mean_motion": 14.242878,
        "meta_eccentricity": 0.00010743,
        "meta_inclination": 98.8967,
        "meta_ra_of_asc_node": 320.6349,
        "meta_arg_of_pericenter": 160.1243,
        "meta_mean_anomaly": 199.9977,
        "meta_ephemeris_type": 0,
        "meta_classification_type": "U",
        "meta_norad_cat_id": 44387,
        "meta_element_set_no": 999,
        "meta_rev_at_epoch": 33393,
        "meta_bstar": 0.00015761375,
        "meta_mean_motion_dot": 3.18e-06,
        "meta_mean_motion_ddot": 0,
        "tle_line1": "1 44387U 19038A   25340.97634029  .00000318  00000+0  15761-3 0  9995",
        "tle_line2": "2 44387  98.8967 320.6349 0001074 160.1243 199.9977 14.24287800333939"
      },
      "geometry": {
        "type": "Point",
        "coordinates": [
          -40.19356991889062,
          7.970288628096758
        ]
      }
    },
    {
      "type": "Feature",
      "properties": {
        "norad_id": 47719,
        "name": "ARKTIKA-M 1",
        "group": "weather",
        "lat": 60.41546494355812,
        "lon": -158.13489170570892,
        "alt_km": 36075.287740473555,
        "timestamp": "2025-12-07T09:35:09.435283+00:00",
        "meta_object_name": "ARKTIKA-M 1",
        "meta_object_id": "2021-016A",
        "meta_epoch": "2025-12-01T02:41:41.634816",
        "meta_mean_motion": 2.00613156,
        "meta_eccentricity": 0.71974708,
        "meta_inclination": 63.1756,
        "meta_ra_of_asc_node": 85.6045,
        "meta_arg_of_pericenter": 269.084,
        "meta_mean_anomaly": 15.7076,
        "meta_ephemeris_type": 0,
        "meta_classification_type": "U",
        "meta_norad_cat_id": 47719,
        "meta_element_set_no": 999,
        "meta_rev_at_epoch": 3481,
        "meta_bstar": 0,
        "meta_mean_motion_dot": -1.2e-07,
        "meta_mean_motion_ddot": 0,
        "tle_line1": "1 47719U 21016A   25335.11228744 -.00000012  00000+0  00000+0 0  9997",
        "tle_line2": "2 47719  63.1756  85.6045 7197470 269.0840  15.7076  2.00613156 34816"
      },
      "geometry": {
        "type": "Point",
        "coordinates": [
          -158.13489170570892,
          60.41546494355812
        ]
      }
    },
    {
      "type": "Feature",
      "properties": {
        "norad_id": 49008,
        "name": "FENGYUN 3E",
        "group": "weather",
        "lat": 51.31463514698614,
        "lon": -29.102295514489644,
        "alt_km": 821.1332901127398,
        "timestamp": "2025-12-07T09:35:09.435305+00:00",
        "meta_object_name": "FENGYUN 3E",
        "meta_object_id": "2021-062A",
        "meta_epoch": "2025-12-06T23:11:37.353984",
        "meta_mean_motion": 14.19878856,
        "meta_eccentricity": 6.207e-05,
        "meta_inclination": 98.7476,
        "meta_ra_of_asc_node": 341.5561,
        "meta_arg_of_pericenter": 302.8777,
        "meta_mean_anomaly": 57.234,
        "meta_ephemeris_type": 0,
        "meta_classification_type": "U",
        "meta_norad_cat_id": 49008,
        "meta_element_set_no": 999,
        "meta_rev_at_epoch": 22930,
        "meta_bstar": 5.2421276e-05,
        "meta_mean_motion_dot": 6.7e-07,
        "meta_mean_motion_ddot": 0,
        "tle_line1": "1 49008U 21062A   25340.96640456  .00000067  00000+0  52421-4 0  9996",
        "tle_line2": "2 49008  98.7476 341.5561 0000620 302.8777  57.2340 14.19878856229305"
      },
      "geometry": {
        "type": "Point",
        "coordinates": [
          -29.102295514489644,
          51.31463514698614
        ]
      }
    },
    {
      "type": "Feature",
      "properties": {
        "norad_id": 51850,
        "name": "GOES 18",
        "group": "weather",
        "lat": -0.004552072663482086,
        "lon": 83.21152052533536,
        "alt_km": 35789.13713036427,
        "timestamp": "2025-12-07T09:35:09.435317+00:00",
        "meta_object_name": "GOES 18",
        "meta_object_id": "2022-021A",
        "meta_epoch": "2025-12-06T18:09:00.917568",
        "meta_mean_motion": 1.00272025,
        "meta_eccentricity": 9.081e-05,
        "meta_inclination": 0.0194,
        "meta_ra_of_asc_node": 154.5572,
        "meta_arg_of_pericenter": 142.6729,
        "meta_mean_anomaly": 273.8135,
        "meta_ephemeris_type": 0,
        "meta_classification_type": "U",
        "meta_norad_cat_id": 51850,
        "meta_element_set_no": 999,
        "meta_rev_at_epoch": 466,
        "meta_bstar": 0,
        "meta_mean_motion_dot": 1.03e-06,
        "meta_mean_motion_ddot": 0,
        "tle_line1": "1 51850U 22021A   25340.75626062  .00000103  00000+0  00000+0 0  9996",
        "tle_line2": "2 51850   0.0194 154.5572 0000908 142.6729 273.8135  1.00272025  4666"
      },
      "geometry": {
        "type": "Point",
        "coordinates": [
          83.21152052533536,
          -0.004552072663482086
        ]
      }
    },
    {
      "type": "Feature",
      "properties": {
        "norad_id": 54234,
        "name": "NOAA 21 (JPSS-2)",
        "group": "weather",
        "lat": 64.01520032284624,
        "lon": -100.63569102729006,
        "alt_km": 819.0300847295803,
        "timestamp": "2025-12-07T09:35:09.435328+00:00",
        "meta_object_name": "NOAA 21 (JPSS-2)",
        "meta_object_id": "2022-150A",
        "meta_epoch": "2025-12-06T21:26:14.335872",
        "meta_mean_motion": 14.19521696,
        "meta_eccentricity": 0.0002423,
        "meta_inclination": 98.7454,
        "meta_ra_of_asc_node": 277.2747,
        "meta_arg_of_pericenter": 49.069,
        "meta_mean_anomaly": 311.0696,
        "meta_ephemeris_type": 0,
        "meta_classification_type": "U",
        "meta_norad_cat_id": 54234,
        "meta_element_set_no": 999,
        "meta_rev_at_epoch": 15926,
        "meta_bstar": 0.00011496439,
        "meta_mean_motion_dot": 1.98e-06,
        "meta_mean_motion_ddot": 0,
        "tle_line1": "1 54234U 22150A   25340.89322148  .00000198  00000+0  11496-3 0  9990",
        "tle_line2": "2 54234  98.7454 277.2747 0002423  49.0690 311.0696 14.19521696159265"
      },
      "geometry": {
        "type": "Point",
        "coordinates": [
          -100.63569102729006,
          64.01520032284624
        ]
      }
    },
    {
      "type": "Feature",
      "properties": {
        "norad_id": 54743,
        "name": "METEOSAT-12 (MTG-I1)",
        "group": "weather",
        "lat": -0.13760503793615114,
        "lon": -140.0513825221449,
        "alt_km": 35779.837001863205,
        "timestamp": "2025-12-07T09:35:09.435342+00:00",
        "meta_object_name": "METEOSAT-12 (MTG-I1)",
        "meta_object_id": "2022-170C",
        "meta_epoch": "2025-12-06T22:13:29.997696",
        "meta_mean_motion": 1.0027445,
        "meta_eccentricity": 0.00015388,
        "meta_inclination": 0.7232,
        "meta_ra_of_asc_node": 30.6692,
        "meta_arg_of_pericenter": 221.712,
        "meta_mean_anomaly": 156.6995,
        "meta_ephemeris_type": 0,
        "meta_classification_type": "U",
        "meta_norad_cat_id": 54743,
        "meta_element_set_no": 999,
        "meta_rev_at_epoch": 1105,
        "meta_bstar": 0,
        "meta_mean_motion_dot": -1e-08,
        "meta_mean_motion_ddot": 0,
        "tle_line1": "1 54743U 22170C   25340.92604164 -.00000001  00000+0  00000+0 0  9991",
        "tle_line2": "2 54743   0.7232  30.6692 0001538 221.7120 156.6995  1.00274450 11058"
      },
      "geometry": {
        "type": "Point",
        "coordinates": [
          -140.0513825221449,
          -0.13760503793615114
        ]
      }
    }
  ]
}